{
    "links": {
        "self": "http://www.neowsapp.com/rest/v1/neo/3372212?api_key=iIulBulltgU6a56xZRHN4H3l9WmuAYTsLGpBGhQ2"
    },
    "id": "3372212",
    "neo_reference_id": "3372212",
    "name": "(2007 FO3)",
    "designation": "2007 FO3",
    "nasa_jpl_url": "http://ssd.jpl.nasa.gov/sbdb.cgi?sstr=3372212",
    "absolute_magnitude_h": 24.5,
    "estimated_diameter": {
        "kilometers": {
            "estimated_diameter_min": 0.0334622374,
            "estimated_diameter_max": 0.0748238376
        },
        "meters": {
            "estimated_diameter_min": 33.4622374455,
            "estimated_diameter_max": 74.8238376074
        },
        "miles": {
            "estimated_diameter_min": 0.0207924639,
            "estimated_diameter_max": 0.0464933628
        },
        "feet": {
            "estimated_diameter_min": 109.7842471007,
            "estimated_diameter_max": 245.4850393757
        }
    },
    "is_potentially_hazardous_asteroid": false,
    "close_approach_data": [
        {
            "close_approach_date": "2004-09-07",
            "close_approach_date_full": "2004-Sep-07 18:34",
            "epoch_date_close_approach": 1094582040000,
            "relative_velocity": {
                "kilometers_per_second": "20.0238569288",
                "kilometers_per_hour": "72085.8849435997",
                "miles_per_hour": "44791.3655639828"
            },
            "miss_distance": {
                "astronomical": "0.4079767235",
                "lunar": "158.7029454415",
                "kilometers": "61032448.845178945",
                "miles": "37923805.162181641"
            },
            "orbiting_body": "Earth"
        },
        {
            "close_approach_date": "2007-04-10",
            "close_approach_date_full": "2007-Apr-10 07:09",
            "epoch_date_close_approach": 1176188940000,
            "relative_velocity": {
                "kilometers_per_second": "7.6884030171",
                "kilometers_per_hour": "27678.2508615018",
                "miles_per_hour": "17198.1887089148"
            },
            "miss_distance": {
                "astronomical": "0.0527329166",
                "lunar": "20.5131045574",
                "kilometers": "7888732.002247642",
                "miles": "4901830.7652837796"
            },
            "orbiting_body": "Earth"
        },
        {
            "close_approach_date": "2007-09-30",
            "close_approach_date_full": "2007-Sep-30 02:42",
            "epoch_date_close_approach": 1191120120000,
            "relative_velocity": {
                "kilometers_per_second": "6.7247026646",
                "kilometers_per_hour": "24208.9295924183",
                "miles_per_hour": "15042.4873903557"
            },
            "miss_distance": {
                "astronomical": "0.4040489095",
                "lunar": "157.1750257955",
                "kilometers": "60444856.237022765",
                "miles": "37558692.045993557"
            },
            "orbiting_body": "Earth"
        },
        {
            "close_approach_date": "2080-09-08",
            "close_approach_date_full": "2080-Sep-08 23:22",
            "epoch_date_close_approach": 3493063320000,
            "relative_velocity": {
                "kilometers_per_second": "20.5345753375",
                "kilometers_per_hour": "73924.4712150515",
                "miles_per_hour": "45933.7915724857"
            },
            "miss_distance": {
                "astronomical": "0.424529504",
                "lunar": "165.141977056",
                "kilometers": "63508709.55055648",
                "miles": "39462482.215100224"
            },
            "orbiting_body": "Earth"
        }
    ],
    "orbital_data": {
        "orbit_id": "7",
        "orbit_determination_date": "2017-04-06 09:06:40",
        "first_observation_date": "2007-03-20",
        "last_observation_date": "2007-03-21",
        "data_arc_in_days": 1,
        "observations_used": 21,
        "orbit_uncertainty": "8",
        "minimum_orbit_intersection": ".0410561",
        "jupiter_tisserand_invariant": "5.032",
        "epoch_osculation": "2454180.5",
        "eccentricity": ".2978808295534872",
        "semi_major_axis": "1.270917581032193",
        "inclination": "6.323571073803543",
        "ascending_node_longitude": "356.855241040214",
        "orbital_period": "523.3286463157873",
        "perihelion_distance": ".8923355977002121",
        "perihelion_argument": "262.0808742831531",
        "aphelion_distance": "1.649499564364174",
        "perihelion_time": "2454250.546600294393",
        "mean_anomaly": "311.8146459523923",
        "mean_motion": ".6879042501005546",
        "equinox": "J2000",
        "orbit_class": {
            "orbit_class_type": "APO",
            "orbit_class_description": "Near-Earth asteroid orbits which cross the Earth’s orbit similar to that of 1862 Apollo",
            "orbit_class_range": "a (semi-major axis) > 1.0 AU; q (perihelion) < 1.017 AU"
        }
    },
    "is_sentry_object": false
}